STARLINK-30223          
1 57603U 23119B   26141.44820797  .00011194  00000+0  69727-3 0  9991
2 57603  43.0006  42.6070 0004689 213.2332 146.8219 15.09577816154064
STARLINK-30218          
1 57604U 23119C   26141.77967303 -.00000248  00000+0  51576-6 0  9998
2 57604  43.0039  28.8855 0001353 268.7652  91.3044 15.27579035154260
STARLINK-30138          
1 57605U 23119D   26141.78352708  .00000206  00000+0  17030-4 0  9995
2 57605  43.0060  28.9149 0001233 262.6487  97.4225 15.27577986154269
STARLINK-30255          
1 57606U 23119E   26141.10910107  .00000700  00000+0  34947-4 0  9990
2 57606  43.0012  32.4519 0001385 272.6419  87.4274 15.27580461154166
STARLINK-30252          
1 57607U 23119F   26140.95061002  .00000523  00000+0  28530-4 0  9998
2 57607  43.0021  18.5430 0001020 131.6010 228.4929 15.27581704154313
STARLINK-30258          
1 57608U 23119G   26141.67459463  .00005055  00000+0  19316-3 0  9997
2 57608  43.0056  29.8045 0001506 275.1537  84.9143 15.27570855154246
STARLINK-30174          
1 57609U 23119H   26140.96676768 -.00000381  00000+0 -43163-5 0  9996
2 57609  43.0047  33.0996 0001366 259.2606 100.8092 15.27578393154148
STARLINK-30248          
1 57610U 23119J   26141.41804797 -.00001241  00000+0 -35602-4 0  9998
2 57610  43.0037  30.4702 0001116 286.9038  73.1691 15.27571583154213
STARLINK-30052          
1 57611U 23119K   26141.03601572 -.00001266  00000+0 -36490-4 0  9996
2 57611  43.0050  32.7607 0001545 259.8593 100.2084 15.27571765154130
STARLINK-30245          
1 57612U 23119L   26141.41933819  .00002635  00000+0  10528-3 0  9993
2 57612  43.0060  30.4756 0001333 263.6318  96.4382 15.27562929154213
STARLINK-30041          
1 57613U 23119M   26140.97190265  .00001047  00000+0  47560-4 0  9997
2 57613  43.0027  33.1399 0001255 277.2032  82.8677 15.27583426154140
STARLINK-30244          
1 57614U 23119N   26141.11038662  .00001169  00000+0  52011-4 0  9999
2 57614  43.0039  32.4549 0001394 262.2243  97.8451 15.27573800154168
STARLINK-30246          
1 57615U 23119P   26141.37578823 -.00001776  00000+0 -55038-4 0  9994
2 57615  42.9996  30.9931 0001248 270.7213  89.3496 15.27569725154207
STARLINK-30075          
1 57616U 23119Q   26141.41676534 -.00000411  00000+0 -53993-5 0  9992
2 57616  43.0075  30.4641 0001983 245.3902 114.6744 15.27570756154215
STARLINK-30148          
1 57617U 23119R   26140.96547721  .00000087  00000+0  12708-4 0  9992
2 57617  43.0063  33.1019 0001359 266.1770  93.8926 15.27579208154146
STARLINK-30249          
1 57618U 23119S   26140.96933418  .00000428  00000+0  25068-4 0  9997
2 57618  43.0058  33.1269 0001223 269.9790  90.0922 15.27583360154140
STARLINK-30141          
1 57620U 23119U   26141.04628834  .00001679  00000+0  70510-4 0  9994
2 57620  43.0002  32.8419 0000950 269.6513  90.4230 15.27584698154153
STARLINK-30150          
1 57621U 23119V   26141.04243289 -.00000027  00000+0  85478-5 0  9999
2 57621  43.0013  32.8133 0001130 287.2480  72.8248 15.27582147154159
STARLINK-30056          
1 57622U 23119W   26141.57582206 -.00034925  00000+0 -12586-2 0  9995
2 57622  42.9949  29.9094 0001234  33.1477 326.9452 15.27761867154235
STARLINK-30100          
1 57623U 23119X   26141.57966100 -.00000092  00000+0  61755-5 0  9997
2 57623  42.9998  29.9629 0000625 261.3242  98.7538 15.27575127154233
LUDI TANCE-4 01A        
1 57624U 23120A   26141.60896700 -.00000188  00000+0  00000+0 0  9998
2 57624  15.1174 194.6208 0001319  93.8980 259.5691  1.00274206 10275
HEAD-3A                 
1 57626U 23121A   26141.88021721  .00000267  00000+0  86907-4 0  9996
2 57626  45.0015  81.0639 0005514 146.8564 213.2639 14.60625759147732
HEAD-3B                 
1 57627U 23121B   26141.84161751  .00000319  00000+0  95778-4 0  9995
2 57627  45.0028  74.6376 0004297 134.1379 225.9832 14.61528872147817
HEAD-3C                 
1 57628U 23121C   26141.87764920  .00000400  00000+0  11034-3 0  9999
2 57628  45.0002  69.0310 0004827 134.0953 226.0302 14.62203415147887
HEAD-3D                 
1 57629U 23121D   26141.84866223  .00000400  00000+0  10909-3 0  9996
2 57629  45.0044  64.6141 0006130 130.0564 230.0833 14.62870574147947
HEAD-3E                 
1 57630U 23121E   26141.89043704  .00000474  00000+0  12101-3 0  9991
2 57630  45.0024  57.6339 0006675 121.3184 238.8329 14.63801026148037
STARLINK-30309          
1 57632U 23122A   26141.71679605 -.00000134  00000+0  46755-5 0  9998
2 57632  43.0054  40.2491 0001806 270.8325  89.2320 15.27569489153372
STARLINK-30306          
1 57633U 23122B   26141.00140103 -.00001390  00000+0 -41009-4 0  9999
2 57633  42.9981  44.3329 0000984 244.2368 115.8382 15.27564181153269
STARLINK-30323          
1 57634U 23122C   26141.04113234  .00000538  00000+0  29060-4 0  9993
2 57634  43.0031  32.7430 0001243 266.7686  93.3023 15.27586972153403
STARLINK-30329          
1 57635U 23122D   26141.07320281  .00000119  00000+0  13855-4 0  9999
2 57635  43.0015  44.0126 0001527 272.2035  87.8642 15.27589842153278
STARLINK-30330          
1 57636U 23122E   26141.07706822 -.00000834  00000+0 -20794-4 0  9995
2 57636  43.0034  44.0451 0001187 267.0822  92.9893 15.27570836153277
STARLINK-30311          
1 57637U 23122F   26141.41797221 -.00000050  00000+0  77023-5 0  9994
2 57637  43.0056  41.4443 0001201 244.0740 115.9988 15.27594240153338
STARLINK-30328          
1 57638U 23122G   26140.96803533  .00001977  00000+0  81391-4 0  9998
2 57638  43.0069  32.9973 0001633 253.4856 106.5816 15.27570128153400
STARLINK-30326          
1 57639U 23122H   26141.44367880  .00000387  00000+0  23611-4 0  9998
2 57639  43.0071  41.6253 0001526 262.9778  97.0900 15.27575835153331
STARLINK-30324          
1 57640U 23122J   26140.93857668  .00000470  00000+0  26600-4 0  9995
2 57640  43.0035  44.7211 0001359 262.8863  97.1834 15.27581571153240
STARLINK-30312          
1 57641U 23122K   26141.41155399  .00000649  00000+0  33103-4 0  9996
2 57641  43.0029  41.3928 0001191 261.3473  98.7244 15.27578725153336
STARLINK-30263          
1 57642U 23122L   26141.09491411 -.00000371  00000+0 -39495-5 0  9994
2 57642  43.0065  43.3174 0000872 264.3186  95.7567 15.27560854153284
STARLINK-30280          
1 57643U 23122M   26141.03723365 -.00001254  00000+0 -36072-4 0  9993
2 57643  43.0068  43.7438 0001299 272.8159  87.2544 15.27567846153271
STARLINK-30247          
1 57644U 23122N   26141.09876233 -.00000558  00000+0 -10769-4 0  9994
2 57644  43.0065  43.3503 0000917 254.6494 105.4256 15.27571623153286
STARLINK-30277          
1 57645U 23122P   26141.76900720 -.00000505  00000+0 -88214-5 0  9991
2 57645  43.0048 257.6867 0001769 265.6499  94.4151 15.27575170155053
STARLINK-30265          
1 57646U 23122Q   26141.41542509 -.00000218  00000+0  15905-5 0  9998
2 57646  43.0058  41.4226 0001155 259.1767 100.8954 15.27577353153335
STARLINK-30286          
1 57647U 23122R   26141.10646421  .00000985  00000+0  45316-4 0  9991
2 57647  43.0081  43.3995 0000494 261.4343  98.6453 15.27581724153286
STARLINK-30243          
1 57648U 23122S   26141.45137934  .00009246  00000+0  34564-3 0  9995
2 57648  43.0050  41.6915 0002270 248.5844 111.4766 15.27527577153335
STARLINK-30299          
1 57650U 23122U   26141.43725425 -.00000051  00000+0  76826-5 0  9999
2 57650  43.0051  41.5825 0000988 271.3056  88.7682 15.27576634153332
STARLINK-30294          
1 57651U 23122V   26141.42060892  .00001789  00000+0  74563-4 0  9992
2 57651  43.0064  30.4469 0001484 274.9177  85.1505 15.27562672153469
STARLINK-30276          
1 57652U 23122W   26141.05522496 -.00001640  00000+0 -50083-4 0  9994
2 57652  43.0063  43.8688 0001661 254.5771 105.4897 15.27581599153279
STARLINK-30289          
1 57653U 23122X   26141.67072595  .00003201  00000+0  12575-3 0  9999
2 57653  43.0063  29.6866 0001206 265.8733  94.1981 15.27591755153484
GAOFEN-12 04            
1 57654U 23123A   26141.84111539  .00000596  00000+0  85252-4 0  9999
2 57654  97.9131  60.2371 0001638  93.4400 266.7000 14.80169559148738
STARLINK-30267          
1 57663U 23124A   26141.57459216  .00000091  00000+0  15213-4 0  9997
2 57663  53.1594 228.4842 0001050  80.8469 279.2651 15.30190158154721
STARLINK-30298          
1 57665U 23124C   26141.64202016  .00000567  00000+0  31271-4 0  9991
2 57665  53.1612 228.2086 0001070  84.1598 275.9525 15.30189967154734
STARLINK-30301          
1 57666U 23124D   26141.81794993  .00018303  00000+0  58893-3 0  9996
2 57666  53.1598 288.6111 0000372  77.8938 282.2105 15.32304471153878
STARLINK-30275          
1 57667U 23124E   26141.66100191  .00014350  00000+0  49677-3 0  9999
2 57667  53.1622 228.1248 0001372  80.0011 280.1144 15.30128110154734
STARLINK-30278          
1 57668U 23124F   26140.67599285  .00000242  00000+0  20303-4 0  9997
2 57668  53.1606 232.6708 0001056  76.4807 283.6311 15.30191609154589
STARLINK-30271          
1 57669U 23124G   26141.57804468  .00000157  00000+0  16811-4 0  9994
2 57669  53.1617 228.2084 0000966  81.4274 278.6837 15.31701581154723
STARLINK-30322          
1 57670U 23124H   26141.52930416 -.00000251  00000+0  36233-5 0  9991
2 57670  53.1618 228.7335 0000695  59.5931 300.5138 15.30187621154715
STARLINK-30296          
1 57671U 23124J   26141.57774726  .00000866  00000+0  41357-4 0  9990
2 57671  53.1615 228.4532 0001075  84.7859 275.3264 15.30194405154729
STARLINK-30274          
1 57672U 23124K   26141.62725454  .00000155  00000+0  17363-4 0  9992
2 57672  53.1611 228.1601 0000806  85.1737 274.9356 15.30186479154731
STARLINK-30316          
1 57673U 23124L   26140.53799060  .00002646  00000+0  10146-3 0  9994
2 57673  53.1619 233.3476 0000668  62.4252 297.6817 15.30185816154563
STARLINK-30313          
1 57676U 23124P   26141.63041882 -.00000555  00000+0 -66214-5 0  9999
2 57676  53.1617 228.1799 0000966  81.9860 278.1250 15.30192260154731
